ONEWEB-0656             
1 55817U 23029X   24189.59023346  .00000096  00000+0  20479-3 0  9997
2 55817  87.9199  55.5869 0001527 103.7515 256.3788 13.20770722 67481
ONEWEB-0657             
1 55818U 23029Y   24189.27615350  .00000119  00000+0  26474-3 0  9992
2 55818  87.9149  86.2460 0001010  87.7079 272.4169 13.19719959 65278
ONEWEB-0658             
1 55819U 23029Z   24189.27141358  .00000115  00000+0  25455-3 0  9999
2 55819  87.9148  86.1824 0002049  59.2558 300.8776 13.19728805 65281
ONEWEB-0660             
1 55820U 23029AA  24189.70890627 -.00000084  00000+0 -26160-3 0  9990
2 55820  87.8951  70.8249 0002342  72.7128 287.4258 13.14502400 66905
ONEWEB-0661             
1 55821U 23029AB  24189.59156734  .00000253  00000+0  64749-3 0  9993
2 55821  87.8956  70.9154 0002347  77.4337 282.7055 13.14505323 66164
ONEWEB-0662             
1 55822U 23029AC  24189.16972650 -.00000084  00000+0 -26126-3 0  9991
2 55822  87.8955  71.0071 0002150  72.0203 288.1161 13.14501064 66154
ONEWEB-0663             
1 55823U 23029AD  24190.11324685  .00000099  00000+0  21144-3 0  9997
2 55823  87.9198  55.5431 0002165  73.0377 287.0993 13.20791069 68225
ONEWEB-0664             
1 55824U 23029AE  24190.03213431  .00000071  00000+0  14251-3 0  9996
2 55824  87.9197  55.5728 0002317  88.1960 271.9439 13.20774031 68225
